[{"OBJECT_NAME":"STARLINK-31963","OBJECT_ID":"2024-100J","EPOCH":"2026-03-09T05:18:09.209088","MEAN_MOTION":15.2758323,"ECCENTRICITY":7.539e-5,"INCLINATION":43.0038,"RA_OF_ASC_NODE":128.1788,"ARG_OF_PERICENTER":236.4375,"MEAN_ANOMALY":123.6405,"EPHEMERIS_TYPE":0,"CLASSIFICATION_TYPE":"U","NORAD_CAT_ID":59893,"ELEMENT_SET_NO":999,"REV_AT_EPOCH":10108,"BSTAR":-9.6154661e-5,"MEAN_MOTION_DOT":-2.907e-5,"MEAN_MOTION_DDOT":0},{"OBJECT_NAME":"OBJECT M","OBJECT_ID":"2024-205M","EPOCH":"2026-03-09T22:23:47.520096","MEAN_MOTION":15.27663844,"ECCENTRICITY":0.00036602,"INCLINATION":97.3915,"RA_OF_ASC_NODE":144.193,"ARG_OF_PERICENTER":310.2554,"MEAN_ANOMALY":49.8364,"EPHEMERIS_TYPE":0,"CLASSIFICATION_TYPE":"U","NORAD_CAT_ID":61905,"ELEMENT_SET_NO":999,"REV_AT_EPOCH":7334,"BSTAR":0.00036391974,"MEAN_MOTION_DOT":9.771e-5,"MEAN_MOTION_DDOT":0}]
